[Satellite]
VERSION=1.1
NAME=ASTROSAT
NICKNAME=ASTROSAT
TLE1=1 40930U 15052A   20158.01751499  .00000705  00000-0  10020-4 0  9990
TLE2=2 40930   5.9975  63.8165 0008028 108.5046 251.5954 14.76315631253529
STATUS=0
